CUTE-1 (CO-55)          
1 27844U 03031E   23319.86059504  .00000477  00000+0  23109-3 0  9992
2 27844  98.6794 324.9277 0010605  50.5695 309.6420 14.22960912 57301
CUBESAT XI-IV (CO-57)   
1 27848U 03031J   23319.50300687  .00000392  00000+0  19560-3 0  9990
2 27848  98.6829 324.9290 0010682  65.7220 294.5073 14.22446287 57069
CUBESAT XI-V            
1 28895U 05043F   23320.34667607  .00001857  00000+0  34431-3 0  9991
2 28895  98.1747  91.5010 0015259 315.2504  44.7468 14.66400110963338
CUTE-1.7+APD II (CO-65) 
1 32785U 08021C   23319.80104167  .00004762  00000+0  45299-3 0  9991
2 32785  97.7279 282.8160 0010700 329.5084  30.5513 14.93870184843449
AAUSAT-II               
1 32788U 08021F   23319.66918248  .00012968  00000+0  84203-3 0  9996
2 32788  97.5774 296.2457 0006484 171.9112 188.2221 15.08158599845909
SEEDS II (CO-66)        
1 32791U 08021J   23319.45782127  .00007324  00000+0  60587-3 0  9991
2 32791  97.6745 287.8980 0008601 259.4480 100.5774 14.99171282844386
SWISSCUBE               
1 35932U 09051B   23319.93208848  .00001493  00000+0  33400-3 0  9996
2 35932  98.4968 193.7409 0006174 259.9180 100.1322 14.58210891751363
BEESAT-1                
1 35933U 09051C   23319.56319914  .00001262  00000+0  28480-3 0  9999
2 35933  98.4893 194.5311 0004499 277.0108  83.0578 14.58056140751346
ITUPSAT1                
1 35935U 09051E   23319.56623524  .00001165  00000+0  26943-3 0  9990
2 35935  98.4992 194.4204 0006805 282.1966  77.8469 14.57072002751007
TISAT 1                 
1 36799U 10035E   23320.12330878  .00006338  00000+0  53606-3 0  9997
2 36799  98.1092 195.7077 0010407 185.8909 174.2192 14.98382994725167
M-CUBED & EXP-1 PRIME   
1 37855U 11061F   23319.93210899  .00034842  00000+0  81935-3 0  9995
2 37855 101.6992   8.6164 0096736 292.1208  66.9773 15.37103681659786
AEROCUBE 4.5A           
1 38767U 12048K   23320.32079358  .00007924  00000+0  51683-3 0  9990
2 38767  64.6632 278.1257 0104824  99.1479 262.1515 15.04065881228248
AEROCUBE 4.5B           
1 38768U 12048L   23320.13817433  .00015417  00000+0  79238-3 0  9996
2 38768  64.6624 216.6724 0083788  90.3250 270.7474 15.13606588228920
STRAND-1                
1 39090U 13009E   23319.79595628  .00000496  00000+0  18606-3 0  9995
2 39090  98.3817 148.9959 0009059 165.5668 194.5778 14.35774940561472
BRITE-AUSTRIA           
1 39091U 13009F   23319.80924385  .00000286  00000+0  11380-3 0  9993
2 39091  98.3852 148.2580 0010431 173.1786 186.9544 14.35604220561500
BEESAT-3                
1 39135U 13015F   23320.00958430  .00183318  00000+0  13841-2 0  9992
2 39135  64.8445 179.7577 0011131 244.3449 115.6554 15.71585928585943
BEESAT-2                
1 39136U 13015G   23320.04430472  .00104600  00000+0  12084-2 0  9993
2 39136  64.8581 195.4235 0020106 254.9253 104.9670 15.61096174585661
NEE-01 PEGASO           
1 39151U 13018B   23320.24430283  .00002717  00000+0  33337-3 0  9996
2 39151  98.0215  70.8776 0016038  21.1733 339.0141 14.83866190570230
ESTCUBE 1               
1 39161U 13021C   23320.14408930  .00002259  00000+0  34219-3 0  9995
2 39161  97.8566  28.0433 0008852 193.1419 166.9561 14.75085573565560
POPACS 1                
1 39268U 13055D   23319.92608766  .00025261  00000+0  50983-3 0  9997
2 39268  80.9900  34.1247 0466866  53.7128 310.6264 14.77168507528754
POPACS 2                
1 39269U 13055E   23319.83485582  .00015896  00000+0  39719-3 0  9994
2 39269  81.0047 110.5387 0585979 252.6279 101.0045 14.47844263524489
POPACS 3                
1 39270U 13055F   23319.51749904  .00010081  00000+0  28620-3 0  9992
2 39270  81.0082 155.0533 0650280  17.8608 344.4299 14.31522327502197
ZACUBE-1 (TSHEPISOSAT)  
1 39417U 13066B   23320.11229170  .00004020  00000+0  44872-3 0  9996
2 39417  97.7074 276.7469 0054303 145.5493 214.9262 14.86476870539753
WNISAT-1                
1 39423U 13066H   23320.13035280  .00001102  00000+0  22220-3 0  9993
2 39423  97.6821 166.7296 0170993 321.3406  37.5652 14.54554054529529
TRITON-1                
1 39427U 13066M   23320.42020743  .00003319  00000+0  48934-3 0  9999
2 39427  97.8383 240.6388 0107581  49.9748 311.0839 14.72090625534934
DELFI-N3XT              
1 39428U 13066N   23319.47471602  .00005984  00000+0  82465-3 0  9994
2 39428  97.8356 239.1104 0109065  62.9046 298.3239 14.74492523534418
GOMX-1                  
1 39430U 13066Q   23320.44636740  .00002121  00000+0  36847-3 0  9995
2 39430  97.7571 202.6133 0142401 210.8536 148.4242 14.62727810531788
CUBEBUG-2 (LO-74)       
1 39440U 13066AA  23319.54216623  .00004091  00000+0  51370-3 0  9995
2 39440  97.7899 263.5928 0071461 254.3587 104.9732 14.80878229536547
NEE-02 KRYSAOR          
1 39441U 13066AB  23319.60348657  .00002937  00000+0  39140-3 0  9994
2 39441  97.8002 260.1815 0075010 273.1516  86.1115 14.78459156537377
FUNCUBE-1 (AO-73)       
1 39444U 13066AE  23319.48181264  .00004365  00000+0  46313-3 0  9999
2 39444  97.6928 278.8477 0052636 131.4336 229.1421 14.88540357538139
UWE-3                   
1 39446U 13066AG  23319.60035867  .00003462  00000+0  41278-3 0  9994
2 39446  97.7551 269.7419 0062719 202.0667 157.7845 14.83521975536868
BRITE-CA1 (TORONTO)     
1 40020U 14033L   23320.33805941  .00001115  00000+0  19009-3 0  9999
2 40020  97.8481 100.5641 0085546  55.2980 305.6247 14.68530644503588
DUCHIFAT-1              
1 40021U 14033M   23319.65250379  .00009401  00000+0  73821-3 0  9990
2 40021  98.0744 288.9115 0014970 102.2175 258.0725 15.01055484511889
NANOSATC-BR1            
1 40024U 14033Q   23319.64675725  .00008097  00000+0  68114-3 0  9997
2 40024  98.0492 278.9594 0012382 127.2503 232.9850 14.98478372511070
QB50P1                  
1 40025U 14033R   23319.62284787  .00006675  00000+0  60111-3 0  9999
2 40025  98.0160 269.3987 0011924 141.7322 218.4747 14.95893835510765
QB50P2                  
1 40032U 14033Y   23319.36590109  .00004912  00000+0  45472-3 0  9991
2 40032  97.9825 262.1274 0011078 142.7641 217.4349 14.94951605510546
PERSEUS-M2              
1 40037U 14033AD  23319.36649675  .00001950  00000+0  21209-3 0  9990
2 40037  97.9137 244.7966 0013509 176.2591 183.8729 14.89164645509841
PERSEUS-M1              
1 40039U 14033AF  23320.36167302  .00001819  00000+0  19975-3 0  9997
2 40039  97.8971 242.4238 0013427 172.3557 187.7867 14.88867657510360
POLYITAN-1              
1 40042U 14033AJ  23320.31558070  .00005855  00000+0  50849-3 0  9991
2 40042  98.0275 272.4842 0013425 132.3516 227.8844 14.97355505511295
TIGRISAT                
1 40043U 14033AK  23319.88113696  .00002574  00000+0  36025-3 0  9998
2 40043  97.6744 127.4287 0055668 281.2344  78.2613 14.77339093505806
AEROCUBE 6A             
1 40045U 14033AM  23320.47460748  .00004446  00000+0  57617-3 0  9990
2 40045  97.6582 138.0853 0052087 261.6694  97.8611 14.80347237506389
AEROCUBE 6B             
1 40046U 14033AN  23320.02291235  .00005494  00000+0  69764-3 0  9995
2 40046  97.6539 136.1989 0050713 259.4889 100.0608 14.81146351506496
UKUBE-1                 
1 40074U 14037F   23320.31363320  .00005773  00000+0  60201-3 0  9994
2 40074  98.3373 232.8725 0005733  61.9020 298.2775 14.90175923506894
BRITE-PL2 (HEWELIUSZ)   
1 40119U 14049B   23320.25729744  .00001864  00000+0  21174-3 0  9999
2 40119  97.8839  56.2108 0016108 352.8833   7.2152 14.87425678500858
GRIFEX                  
1 40379U 15003D   23319.69480347  .00090444  00000+0  10101-2 0  9996
2 40379  99.0858 295.1868 0057969 101.5821 259.1946 15.60357605486829
CP10 (EXOCUBE)          
1 40380U 15003E   23319.61843307  .00036638  00000+0  72820-3 0  9991
2 40380  99.0951 281.7176 0079507 143.7849 216.8813 15.43439521485986
EXACTVIEW 9             
1 40936U 15052G   23319.50871668  .00002939  00000+0  29911-3 0  9991
2 40936   6.0025  85.1140 0010809 276.1974  83.6922 14.79342919439735
AEROCUBE 5C             
1 40965U 15058B   23320.29869291  .00004678  00000+0  48873-3 0  9996
2 40965  64.7723 297.0168 0172478  16.9900 343.6882 14.80500161225348
AEROCUBE 7              
1 40966U 15058C   23320.33393180  .00006308  00000+0  63782-3 0  9999
2 40966  64.7706 292.3027 0169335  16.6649 343.9926 14.81725285225414
GALASSIA                
1 41170U 15077E   23319.83582706  .00223268  00000+0  16150-2 0  9997
2 41170  14.9827 137.1427 0004675  71.2496 288.8340 15.71386808439794
VELOX-II                
1 41171U 15077F   23320.17754635  .00032545  00000+0  85496-3 0  9995
2 41171  14.9908 270.2175 0004957 207.8898 152.1160 15.36468442438596
HORYU-4                 
1 41340U 16012D   23320.24700884  .00008578  00000+0  49789-3 0  9992
2 41340  31.0043 283.3935 0011003 324.0502  35.9396 15.10766129425711
E-ST@R-II               
1 41459U 16025D   23320.44432272  .00049554  00000+0  98598-3 0  9993
2 41459  98.1610 178.3883 0079704 285.4087  73.8364 15.43322082416269
RAVAN                   
1 41849U 16067B   23319.73051609  .00009639  00000+0  61751-3 0  9994
2 41849  98.0514 120.9571 0015498  39.2347 321.0001 15.08675405383591
CELTEE 1                
1 41850U 16067C   23320.39895882  .00004716  00000+0  35167-3 0  9992
2 41850  98.0796 114.7544 0000945 135.9347 224.1953 15.03395067383273
OPTICUBE 04             
1 41851U 16067D   23320.40050948  .00002119  00000+0  17143-3 0  9990
2 41851  98.0547 112.1185 0015643  61.0355 299.2434 15.00839729383159
AEROCUBE 8D             
1 41852U 16067E   23319.38787418  .00006639  00000+0  48434-3 0  9993
2 41852  98.0854 113.0013 0006028 105.1876 255.0016 15.04052635383070
AEROCUBE 8C             
1 41853U 16067F   23320.12269859  .00006608  00000+0  48291-3 0  9999
2 41853  98.0660 112.9043 0009264  42.1167 318.0768 15.03965683383175
PROMETHEUS 2-1          
1 41854U 16067G   23319.39710149  .00011463  00000+0  71958-3 0  9991
2 41854  98.0845 116.6030 0015757  66.5434 293.7448 15.09364999383262
